1 27267U 01049HP  18212.92928540 +.00000359 +00000-0 +43694-4 0  9998
2 27267 098.0480 200.4996 0044166 318.2732 041.5118 14.89234684894776
1 27305U 01049KB  18212.82114573 +.00000069 +00000-0 +19560-4 0  9996
2 27305 098.1809 169.0639 0043166 285.0026 104.8783 14.71617518889626
1 27353U 01049MA  18212.96019515 +.00000878 +00000-0 +56951-4 0  9997
2 27353 097.6619 211.1057 0024173 179.4985 180.6273 15.10533479898737
1 27384U 99057MJ  18213.05871969  .00001291  00000-0  15441-3 0  9995
2 27384  98.1460 249.7580 0047334 354.3230   5.7441 14.85265622957351
1 27385U 99057MK  18212.91923879 +.00002005 +00000-0 +18999-3 0  9993
2 27385 097.9862 247.0339 0046128 168.7306 191.4957 14.93994836941677
1 27406U 66040AL  17342.01882021  .00000893  00000-0  13565-2 0  9996
2 27406 100.3159 175.4084 0048824 337.4219 174.5260 13.55047156659882
1 27469U 00047C   18212.55191449 -.00000088  00000-0  34598-5 0  9992
2 27469  67.9958 246.7946 0070775 264.8218 253.1555 14.88804948871724
1 27479U 63038P   18212.30637816  .00004585  00000-0  23228-2 0  9998
2 27479  90.0983 331.2906 0039558 216.5600 143.2887 14.15542830822473
1 27480U 68055H   18178.46741347 -.00000020  00000-0  35928-3 0  9999
2 27480 121.0931 349.8283 2095546 151.3189 222.0990  9.44405693564537
1 27481U 68055J   18212.97636089  .00002088  00000-0  30288-2 0  9999
2 27481 120.7348 192.7640 1824132 158.2372 210.7252 10.85309482655440
1 27482U 90081CU  18212.50420913 +.00000153 +00000-0 +11202-3 0  9997
2 27482 098.7055 228.8676 0010145 167.9353 350.3819 14.09499648899608
1 27489U 97005G   18213.38665505  .00003086  00000-0  22405-3 0  9997
2 27489  31.4951 337.4075 4911805 329.6083  22.9225  5.82758734336208
1 27491U 98043L   18213.43772569 -.00000008  00000-0  26475-4 0  9992
2 27491  98.9076  20.3668 0207447  51.1865 310.7611 13.79324793  9577
1 27492U 99057MM  18212.88940649  .00000378  00000-0  10430-3 0  9995
2 27492  98.4547 191.1778 0089954 188.3453 171.6250 14.50315682905993
1 27493U 99057MN  18212.15804580  .00000095  00000-0  40087-4 0  9997
2 27493  98.5535 176.1103 0080088 207.7077 218.8562 14.44117732935323
1 27530U 01049MV  18212.33727360 +.00002300 +00000-0 +66364-4 0  9990
2 27530 097.6155 345.6758 0026968 249.9136 109.9204 15.36488688896055
1 27533U 02036D   13247.66985865 +.00000055 +00000-0 +31562-3 0  9991
2 27533 082.4864 023.1677 0021605 023.6469 350.4011 12.44781683497877
1 27536U 99057MP  18212.38766403 +.00000267 +00000-0 +79990-4 0  9997
2 27536 098.3014 179.3406 0034227 294.0433 228.1853 14.50016023866194
1 27538U 01049MW  18213.45438117  .00000178  00000-0  14789-4 0  9996
2 27538  97.6681 189.0345 0043642 157.0657 203.2534 15.10126489895327
1 27545U 65027BH  18211.70836267 +.00000238 +00000-0 +84590-3 0  9997
2 27545 090.3059 296.4570 0022768 209.0858 304.5416 12.93008977783121
1 27568U 80034E   18209.14616896 +.00000168 +00000-0 +15462-3 0  9990
2 27568 064.8227 040.0750 0031543 002.3388 357.7824 14.07820526825809
1 27569U 81021R   18204.64934417 -.00000049 +00000-0 +32742-4 0  9990
2 27569 064.9613 305.5600 0034029 128.2073 232.2063 13.91245003815897
1 27570U 81021S   18212.58317337 -.00000036 +00000-0 +42708-4 0  9999
2 27570 064.9623 283.9384 0033096 121.1921 307.4488 13.91275420247728
1 27571U 81021T   18207.88264435 -.00000051 +00000-0 +31329-4 0  9991
2 27571 064.9644 308.8926 0033469 117.7007 242.7458 13.91047379814460
1 27572U 84069W   16091.16427692  .00000062  00000-0  12091-3 0  9998
2 27572  65.0495 289.1527 0059213 218.5312 140.6916 13.90246866700043
1 27573U 84069X   18212.55942337 -.00000050 +00000-0 +31428-4 0  9991
2 27573 065.0432 182.9221 0060058 282.7806 191.1567 13.91089034258635
1 27574U 75052LC  18179.75924667 -.00009281 +00000-0 -86010-2 0  9995
2 27574 099.3412 111.9602 0923630 328.0527 026.7599 12.66473889194742
1 27575U 77065GE  18212.12132628 +.00001254 +00000-0 +55737-3 0  9992
2 27575 029.1180 163.6477 0519614 083.7821 016.2735 13.65675003995753
1 27576U 75052LD  18212.84527987 -.00000036 +00000-0 +10434-4 0  9996
2 27576 099.6776 070.7416 0116566 201.2959 223.9662 13.67795828367036
1 27577U 75052LE  18211.74451674 -.00000096 +00000-0 -96587-4 0  9994
2 27577 099.1278 303.9154 0079247 058.7937 092.5804 13.44480653150427
1 27578U 75052LF  18212.50706597 +.00000484 +00000-0 +58531-3 0  9992
2 27578 099.7753 049.8016 0045384 057.8326 331.8819 13.71486910863936
1 27580U 01049MY  18212.81239346  .00000026  00000-0  12039-4 0  9993
2 27580  98.0675 163.2491 0047861 143.3215 217.1284 14.72983757862497
1 27582U 01049NA  18212.95528072 +.00000214 +00000-0 +36385-4 0  9996
2 27582 098.2718 110.1546 0053863 344.8113 015.1478 14.78757619865592
1 27583U 01049NB  18211.98368071  .00001443  00000-0  81710-4 0  9997
2 27583  97.6105 219.5775 0013104 273.3279 116.7796 15.14606844874198
1 27585U 01049ND  18212.26602172 +.00000087 +00000-0 +20453-4 0  9994
2 27585 098.0585 146.6604 0062754 162.3120 198.0293 14.74738921876896
1 27586U 01049NE  18212.98212077  .00000765  00000-0  38849-4 0  9996
2 27586  97.2710 220.4383 0045976 357.9928   2.1115 15.18976747883679
1 27596U 86019VN  18213.39081845  .00000128  00000-0  50212-4 0  9991
2 27596  98.2175 252.7172 0047243  99.2618  27.5025 14.42833223198476
1 27624U 68055K   18213.09045792 -.00001585  00000-0 -28516-2 0  9991
2 27624 120.6358 266.5528 2022665  42.2145 331.7964 10.38401560598905
1 27628U 87068CK  18213.01050593  .00000074  00000-0  45597-4 0  9997
2 27628  82.5173 318.5084 0024760 304.6152  55.2677 13.92624750957004
1 27629U 87068CL  18213.13207795  .00001135  00000-0  27678-3 0  9997
2 27629  82.2684 150.9966 0020406 302.9000  57.0233 14.51915889904251
1 27635U 66077AA  16317.71038315  .00000007  00000-0  00000+0 0  9991
2 27635  89.2562  46.9448 1314797 102.7044  20.0114  8.68734036458079
1 27636U 66077AB  16344.03190813  .00000003  00000-0  00000+0 0  9995
2 27636  89.7355  14.9583 1054559  15.3386 347.7027  8.65225237489874
1 27638U 84069Y   18212.57597082 -.00000047  00000-0  33893-4 0  9992
2 27638  65.0468 197.3487 0061445 276.4737  82.9333 13.90875715810050
1 27639U 87068CM  18211.61328883 +.00000052 +00000-0 +40749-4 0  9993
2 27639 082.5098 161.6204 0069324 106.5688 014.7427 13.71354583246567
1 27653U 01049NQ  18212.86993451 +.00000115 +00000-0 +22833-4 0  9995
2 27653 098.0778 175.3549 0065058 062.8702 320.8828 14.78283040863338
1 27655U 01049NS  18211.94716476 +.00000243 +00000-0 +72846-4 0  9996
2 27655 097.2778 111.4568 0177562 357.2602 002.7601 14.41066166844878
1 27657U 01049NU  18212.26009323  .00000487  00000-0  43601-4 0  9997
2 27657  97.9488 217.2747 0038274 241.6594 181.3425 15.00250166873243
1 27676U 99057MQ  18213.34093021  .00000147  00000-0  62129-4 0  9991
2 27676  98.6957 178.0320 0107723 133.3086 227.7144 14.36254339813480
1 27677U 99057MR  18213.37368056  .00000037  00000-0  23161-4 0  9999
2 27677  98.5504 169.3732 0078449 104.0186  46.7485 14.44893653854261
1 27678U 99057MS  18213.12796480 -.00000004  00000-0  14319-4 0  9999
2 27678  98.6655 157.9755 0109026 177.8392 251.4441 14.32377370845190
1  2644U 66041D   18211.66730522 +.00000048 +00000-0 +31319-4 0  9990
2  2644 090.1001 008.3950 0217326 071.5368 290.9285 13.75475771602836
1  2647U 65073L   18209.67561692 -.00000012 +00000-0 +55308-3 0  9990
2  2647 056.0674 310.1701 0183749 191.9667 323.6669 12.43231673758370
1 02684U 67014C   18211.48213475 -.00000089  00000-0  58538-5 0  9997
2 02684  39.9598 243.5376 0508836 150.8697 212.1474 13.91576532538864
1 02685U 67014F   18212.30367960  .00000101  00000-0  44594-4 0  9999
2 02685  38.9384 303.7525 0435756 163.2919 198.2699 14.11041676559312
1 02700U 65089C   18212.06882212  .00000109  00000-0  93751-3 0  9998
2 02700  59.5967  33.8292 0723528  59.7139  33.5741 12.08884756363947
1  2701U 65048E   18211.73485587 +.00000087 +00000-0 +97050-4 0  9993
2  2701 089.9494 314.1668 0065466 112.2322 052.5470 13.62389547629259
1  2702U 66076D   18212.03531212 +.00000032 +00000-0 +35771-4 0  9999
2  2702 088.5704 302.2907 0090464 091.5342 324.0377 13.35907550511994
1  2706U 67006C   18208.19591174 -.00000019 +00000-0 +16153-3 0  9990
2  2706 102.0706 103.3422 0034832 195.4153 316.9467 12.60821790369321
